NORAD_CAT_ID,OBJECT_NAME,OBJECT_TYPE,EPOCH,MEAN_MOTION,ECCENTRICITY,INCLINATION,RA_OF_ASC_NODE,ARG_OF_PERICENTER,MEAN_ANOMALY,BSTAR,MEAN_MOTION_DOT,MEAN_MOTION_DDOT,TLE_LINE0,TLE_LINE1,TLE_LINE2,SEMIMAJOR_AXIS,PERIOD,APOGEE,PERIGEE,DECAYED
49446.0,STARLINK-3099,PAYLOAD,2023-02-09 10:48:40,15.08841109,0.0001171,53.2147,216.0278,85.2923,274.8203,1.9797e-05,2.7e-07,0.0,0 STARLINK-3099,1 49446U 21104AQ  23040.45046934  .00000027  00000-0  19797-4 0  9995,2 49446  53.2147 216.0278 0001171  85.2923 274.8203 15.08841109 69194,6917.877,95.437,540.552,538.932,0.0
49446.0,STARLINK-3099,PAYLOAD,2023-02-09 18:45:35,15.08850266,0.0001208,53.214,214.5408,87.2833,272.8298,0.0002077,3.02e-05,0.0,0 STARLINK-3099,1 49446U 21104AQ  23040.78166573  .00003020  00000-0  20770-3 0  9991,2 49446  53.2140 214.5408 0001208  87.2833 272.8298 15.08850266 70310,6917.849,95.437,540.55,538.878,0.0
49446.0,STARLINK-3099,PAYLOAD,2023-02-09 23:31:45,15.08854192,0.0001097,53.2136,213.6482,81.211,278.9007,0.0004355,6.653e-05,0.0,0 STARLINK-3099,1 49446U 21104AQ  23040.98038467  .00006653  00000-0  43550-3 0  9999,2 49446  53.2136 213.6482 0001097  81.2110 278.9007 15.08854192 69275,6917.837,95.437,540.461,538.943,0.0
49446.0,STARLINK-3099,PAYLOAD,2023-02-10 15:25:36,15.08849036,0.0001077,53.2138,210.6744,96.3215,263.79,0.00045177,6.911e-05,0.0,0 STARLINK-3099,1 49446U 21104AQ  23041.64278813  .00006911  00000-0  45177-3 0  9998,2 49446  53.2138 210.6744 0001077  96.3215 263.7900 15.08849036 70442,6917.853,95.437,540.463,538.973,0.0
49446.0,STARLINK-3099,PAYLOAD,2023-02-10 20:11:46,15.08850683,0.0001027,53.214,209.7832,94.3475,265.7634,0.0013911,0.00021927,0.0,0 STARLINK-3099,1 49446U 21104AQ  23041.84150846  .00021927  00000-0  13911-2 0  9999,2 49446  53.2140 209.7832 0001027  94.3475 265.7634 15.08850683 69403,6917.848,95.437,540.423,539.002,0.0
49446.0,STARLINK-3099,PAYLOAD,2023-02-11 13:41:01,15.08841826,0.0001163,53.2134,206.5117,92.1737,267.9388,0.001173,0.00018431,0.0,0 STARLINK-3099,1 49446U 21104AQ  23042.57015356  .00018431  00000-0  11730-2 0  9999,2 49446  53.2134 206.5117 0001163  92.1737 267.9388 15.08841826 70585,6917.875,95.437,540.544,538.935,0.0
49446.0,STARLINK-3099,PAYLOAD,2023-02-11 20:02:33,15.08853107,0.0001161,53.2136,205.3227,77.3667,282.7455,0.0018023,0.00028522,0.0,0 STARLINK-3099,1 49446U 21104AQ  23042.83511282  .00028522  00000-0  18023-2 0  9991,2 49446  53.2136 205.3227 0001161  77.3667 282.7455 15.08853107 69551,6917.84,95.437,540.508,538.902,0.0
49446.0,STARLINK-3099,PAYLOAD,2023-02-12 03:59:29,15.08835928,0.0001519,53.214,203.8349,87.9309,272.1857,0.0008132,0.00012676,0.0,0 STARLINK-3099,1 49446U 21104AQ  23043.16631727  .00012676  00000-0  81320-3 0  9999,2 49446  53.2140 203.8349 0001519  87.9309 272.1857 15.08835928 70676,6917.893,95.438,540.809,538.707,0.0
49446.0,STARLINK-3099,PAYLOAD,2023-02-13 03:50:16,15.08848731,6.16e-05,53.2142,199.3766,88.8221,271.2842,0.0011093,0.00017415,0.0,0 STARLINK-3099,1 49446U 21104AQ  23044.15991549  .00017415  00000-0  11093-2 0  9995,2 49446  53.2142 199.3766 0000616  88.8221 271.2842 15.08848731 70827,6917.854,95.437,540.145,539.293,0.0
49446.0,STARLINK-3099,PAYLOAD,2023-02-13 16:33:22,15.08841175,0.0001412,53.2141,196.9963,99.1263,260.9889,0.00063778,9.877e-05,0.0,0 STARLINK-3099,1 49446U 21104AQ  23044.68984166  .00009877  00000-0  63778-3 0  9991,2 49446  53.2141 196.9963 0001412  99.1263 260.9889 15.08841175 70904,6917.877,95.437,540.719,538.765,0.0
49446.0,STARLINK-3099,PAYLOAD,2023-02-13 21:19:31,15.08846637,0.0001307,53.214,196.1042,95.5585,264.5557,0.0011683,0.00018358,0.0,0 STARLINK-3099,1 49446U 21104AQ  23044.88856223  .00018358  00000-0  11683-2 0  9996,2 49446  53.2140 196.1042 0001307  95.5585 264.5557 15.08846637 69866,6917.86,95.437,540.629,538.821,0.0
49446.0,STARLINK-3099,PAYLOAD,2023-02-14 16:24:08,15.08867601,0.0001211,53.2139,192.5378,86.3732,273.7399,0.0010572,0.0001659,0.0,0 STARLINK-3099,1 49446U 21104AQ  23045.68343423  .00016590  00000-0  10572-2 0  9990,2 49446  53.2139 192.5378 0001211  86.3732 273.7399 15.08867601 69985,6917.796,95.436,540.499,538.823,0.0
49446.0,STARLINK-3099,PAYLOAD,2023-02-14 21:10:17,15.0888227,0.0001485,53.2134,191.644,92.3793,267.737,0.0013276,0.00020928,0.0,0 STARLINK-3099,1 49446U 21104AQ  23045.88214837  .00020928  00000-0  13276-2 0  9992,2 49446  53.2134 191.6440 0001485  92.3793 267.7370 15.08882270 71082,6917.751,95.435,540.643,538.589,0.0
49446.0,STARLINK-3099,PAYLOAD,2023-02-15 13:04:09,15.0885556,0.0001437,53.2138,188.6689,113.7075,246.4068,0.00055006,8.481e-05,0.0,0 STARLINK-3099,1 49446U 21104AQ  23046.54454960  .00008481  00000-0  55006-3 0  9997,2 49446  53.2138 188.6689 0001437 113.7075 246.4068 15.08855560 71186,6917.833,95.437,540.692,538.704,0.0
49446.0,STARLINK-3099,PAYLOAD,2023-02-15 21:01:04,15.08866465,0.0001389,53.2135,187.1828,103.5417,256.573,0.0019947,0.00031624,0.0,0 STARLINK-3099,1 49446U 21104AQ  23046.87574836  .00031624  00000-0  19947-2 0  9996,2 49446  53.2135 187.1828 0001389 103.5417 256.5730 15.08866465 70166,6917.799,95.436,540.625,538.704,0.0
49446.0,STARLINK-3099,PAYLOAD,2023-02-16 12:54:55,15.08860899,0.0001526,53.2134,184.2084,118.7915,241.323,0.001403,0.00022124,0.0,0 STARLINK-3099,1 49446U 21104AQ  23047.53814637  .00022124  00000-0  14030-2 0  9999,2 49446  53.2134 184.2084 0001526 118.7915 241.3230 15.08860899 70264,6917.817,95.436,540.737,538.626,0.0
49446.0,STARLINK-3099,PAYLOAD,2023-02-16 16:05:42,15.08867852,0.0001265,53.2132,183.6163,98.6264,261.4872,0.0019052,0.00030187,0.0,0 STARLINK-3099,1 49446U 21104AQ  23047.67062514  .00030187  00000-0  19052-2 0  9990,2 49446  53.2132 183.6163 0001265  98.6264 261.4872 15.08867852 71358,6917.795,95.436,540.535,538.785,0.0
49446.0,STARLINK-3099,PAYLOAD,2023-02-16 20:51:50,15.08888696,0.0001167,53.2139,182.7218,80.9336,279.1788,0.0018568,0.00029426,0.0,0 STARLINK-3099,1 49446U 21104AQ  23047.86933911  .00029426  00000-0  18568-2 0  9994,2 49446  53.2139 182.7218 0001167  80.9336 279.1788 15.08888696 70317,6917.732,95.434,540.404,538.789,0.0
49446.0,STARLINK-3099,PAYLOAD,2023-02-17 15:56:30,15.08825568,0.0001966,53.2142,179.1537,80.1612,279.9602,0.0013066,0.0002056,0.0,0 STARLINK-3099,1 49446U 21104AQ  23048.66423697  .00020560  00000-0  13066-2 0  9996,2 49446  53.2142 179.1537 0001966  80.1612 279.9602 15.08825568 71505,6917.925,95.438,541.15,538.429,0.0
49446.0,STARLINK-3099,PAYLOAD,2023-02-17 22:18:02,15.0880578,0.0002415,53.2137,177.964,78.2337,281.8926,0.0011686,0.00018342,0.0,0 STARLINK-3099,1 49446U 21104AQ  23048.92919796  .00018342  00000-0  11686-2 0  9996,2 49446  53.2137 177.9640 0002415  78.2337 281.8926 15.08805780 70472,6917.985,95.44,541.521,538.179,0.0
49446.0,STARLINK-3099,PAYLOAD,2023-02-19 01:19:37,15.08839113,0.0001792,53.2152,172.907,86.5985,273.5212,0.00044911,6.867e-05,0.0,0 STARLINK-3099,1 49446U 21104AQ  23050.05529281  .00006867  00000-0  44911-3 0  9996,2 49446  53.2152 172.9070 0001792  86.5985 273.5212 15.08839113 71710,6917.883,95.438,540.988,538.508,0.0
49446.0,STARLINK-3099,PAYLOAD,2023-02-19 14:02:42,15.08855231,0.0001429,53.2135,170.5312,91.8425,268.2731,0.0015001,0.00023677,0.0,0 STARLINK-3099,1 49446U 21104AQ  23050.58520922  .00023677  00000-0  15001-2 0  9992,2 49446  53.2135 170.5312 0001429  91.8425 268.2731 15.08855231 70725,6917.834,95.437,540.687,538.71,0.0
49446.0,STARLINK-3099,PAYLOAD,2023-02-19 20:24:14,15.0887221,0.0001454,53.2135,169.3411,92.4277,267.6881,0.0018631,0.00029514,0.0,0 STARLINK-3099,1 49446U 21104AQ  23050.85016465  .00029514  00000-0  18631-2 0  9992,2 49446  53.2135 169.3411 0001454  92.4277 267.6881 15.08872210 71839,6917.782,95.436,540.653,538.641,0.0
49446.0,STARLINK-3099,PAYLOAD,2023-02-20 07:31:56,15.08852549,9.29e-05,53.2152,167.2591,88.3855,271.7244,0.00064585,0.00010009,0.0,0 STARLINK-3099,1 49446U 21104AQ  23051.31384445  .00010009  00000-0  64585-3 0  9999,2 49446  53.2152 167.2591 0000929  88.3855 271.7244 15.08852549 71906,6917.842,95.437,540.35,539.064,0.0
49446.0,STARLINK-3099,PAYLOAD,2023-02-20 13:53:28,15.08868837,0.0001316,53.2138,166.0706,79.7467,280.3674,0.0017792,0.00028164,0.0,0 STARLINK-3099,1 49446U 21104AQ  23051.57880175  .00028164  00000-0  17792-2 0  9996,2 49446  53.2138 166.0706 0001316  79.7467 280.3674 15.08868837 70874,6917.792,95.436,540.568,538.747,0.0
49446.0,STARLINK-3099,PAYLOAD,2023-02-20 18:39:37,15.08880874,0.0001365,53.2138,165.178,80.3953,279.7193,0.0022016,0.00034964,0.0,0 STARLINK-3099,1 49446U 21104AQ  23051.77751766  .00034964  00000-0  22016-2 0  9991,2 49446  53.2138 165.1780 0001365  80.3953 279.7193 15.08880874 71973,6917.755,95.435,540.565,538.676,0.0
49446.0,STARLINK-3099,PAYLOAD,2023-02-21 13:44:15,15.08860466,0.0001495,53.2137,161.6096,93.5178,266.5985,0.0018361,0.00029071,0.0,0 STARLINK-3099,1 49446U 21104AQ  23052.57239801  .00029071  00000-0  18361-2 0  9992,2 49446  53.2137 161.6096 0001495  93.5178 266.5985 15.08860466 72094,6917.818,95.436,540.717,538.649,0.0
49446.0,STARLINK-3099,PAYLOAD,2023-02-21 18:30:24,15.08877682,0.0001328,53.2154,160.7184,87.1819,272.9325,0.0022503,0.00035744,0.0,0 STARLINK-3099,1 49446U 21104AQ  23052.77111375  .00035744  00000-0  22503-2 0  9996,2 49446  53.2154 160.7184 0001328  87.1819 272.9325 15.08877682 71059,6917.765,95.435,540.549,538.712,0.0
49446.0,STARLINK-3099,PAYLOAD,2023-02-22 10:24:15,15.08845061,0.0001226,53.2153,157.7439,106.3823,253.7304,0.00084383,0.00013169,0.0,0 STARLINK-3099,1 49446U 21104AQ  23053.43351727  .00013169  00000-0  84383-3 0  9999,2 49446  53.2153 157.7439 0001226 106.3823 253.7304 15.08845061 72223,6917.865,95.437,540.578,538.882,0.0
49446.0,STARLINK-3099,PAYLOAD,2023-02-22 11:59:39,15.08845407,0.0001332,53.2151,157.4468,103.1499,256.9642,0.0012027,0.00018908,0.0,0 STARLINK-3099,1 49446U 21104AQ  23053.49975822  .00018908  00000-0  12027-2 0  9994,2 49446  53.2151 157.4468 0001332 103.1499 256.9642 15.08845407 71168,6917.864,95.437,540.65,538.807,0.0
